H-2A R/B                
1 27601U 02056E   17084.83215757  .00000054  00000-0  34910-4 0  9997
2 27601  98.3843 155.4787 0072297 181.6916 289.9300 14.31769882745881
CZ-4B R/B               
1 28059U 03049C   17084.67775757 -.00000001  00000-0  11589-4 0  9991
2 28059  98.5735 328.9012 0050877 140.9857 278.9478 14.52479819711564
CZ-2C R/B               
1 28222U 04012C   17084.90159657  .00001178  00000-0  76215-4 0  9997
2 28222  97.5156  43.0187 0050087 110.6364 313.5562 15.09094111708017
SL-16 R/B               
1 28353U 04021B   17084.89593600 -.00000286  00000-0 -12485-3 0  9999
2 28353  70.9999 253.1393 0006951 308.4714  51.5784 14.14193585660373
CZ-2C R/B               
1 28480U 04046B   17084.87254259  .00000009  00000-0  18283-4 0  9993
2 28480  98.1919 186.4485 0143247 110.3259 358.9980 14.25630753642368
ARIANE 5 R/B            
1 28499U 04049H   17084.82400965  .00000101  00000-0  19810-4 0  9998
2 28499  98.0818 167.3485 0093666 124.3843 348.6300 14.79795174661660
CZ-2D R/B               
1 28738U 05024B   17084.89662348  .00000686  00000-0  44824-4 0  9991
2 28738  97.5072 123.3689 0010755 294.4434  65.5674 15.11031710643219
SUZAKU (ASTRO-EII)      
1 28773U 05025A   17084.49244067  .00001424  00000-0  68673-4 0  9990
2 28773  31.3824 119.1007 0004855 227.7915 132.2320 15.15601571644643
ALOS (DAICHI)           
1 28931U 06002A   17084.93411992  .00000201  00000-0  48524-4 0  9999
2 28931  97.8532 116.4212 0001239 128.7669 231.3646 14.62327615595292
H-2A R/B                
1 28932U 06002B   17084.75307424  .00000282  00000-0  32814-4 0  9998
2 28932  98.2072   4.2880 0089106 224.3411 188.3985 14.91283434605379
AKARI (ASTRO-F)         
1 28939U 06005A   17084.83233383  .00003853  00000-0  12072-3 0  9999
2 28939  98.2565 277.0116 0109403 115.1779 246.0851 15.28116036600364
RESURS-DK 1             
1 29228U 06021A   17084.93621913  .00000223  00000-0  24278-4 0  9990
2 29228  69.9353 309.8815 0002078 141.6360 218.4949 15.02114083595597
GENESIS 1               
1 29252U 06029A   17084.69724590  .00000860  00000-0  53927-4 0  9993
2 29252  64.5046 198.1575 0007741 295.9056 167.5591 15.16636279589088
CZ-4B R/B               
1 29507U 06046C   17084.95580829  .00000603  00000-0  52632-4 0  9996
2 29507  97.7876  92.3986 0042068 162.6856 197.5813 15.00002207568516
CZ-2C R/B               
1 31114U 07010B   17084.86708884  .00000007  00000-0  22262-4 0  9992
2 31114  98.4056 351.6341 0060934  97.3267 263.4841 14.19236068515709
COSMO-SKYMED 1          
1 31598U 07023A   17084.79815544 -.00000081  00000-0 -36541-5 0  9996
2 31598  97.8790 269.7703 0001357  90.8652 269.2729 14.82162074530097
GENESIS 2               
1 31789U 07028A   17084.74942194  .00001072  00000-0  65357-4 0  9995
2 31789  64.5036 235.6398 0038692 232.0646 127.6977 15.15912159536261
COSMOS 2428             
1 31792U 07029A   17084.90822937 -.00000060  00000-0 -66413-5 0  9993
2 31792  70.9128 226.9635 0005465  27.7442 332.3969 14.12253996502228
SL-16 R/B               
1 31793U 07029B   17084.78154150 -.00000284  00000-0 -12358-3 0  9990
2 31793  70.9762 204.3559 0002997 270.7344 198.3691 14.14379593502884
KORONAS-FOTON           
1 33504U 09003A   17084.73712573  .00000473  00000-0  23696-4 0  9996
2 33504  82.4421 315.9067 0020591  41.9417 318.3388 15.14728882448749
TIANGONG 1              
1 37820U 11053A   17084.84541260  .00028100  00000-0  18655-3 0  9999
2 37820  42.7609 348.8797 0018444 212.2353 225.1940 15.74654884314817
CZ-3B R/B               
1 38253U 12018D   17084.42832960  .00933185  33736-5  49711-3 0  9998
2 38253  54.8919  70.2191 2214012 132.7195 248.2718 11.31569096117922
H-2A R/B                
1 38341U 12025E   17084.80779550  .00000229  00000-0  34592-4 0  9990
2 38341  98.4404 157.1466 0057119  67.2137 293.5096 14.83528382262434
CUSAT 2 & FALCON 9 R/B  
1 39271U 13055G   17084.95755662  .00006719  00000-0  17208-3 0  9995
2 39271  80.9655  85.1050 0639847  88.3029 279.1289 14.35837103180678
ALOS-2                  
1 39766U 14029A   17084.85894353  .00000230  00000-0  37605-4 0  9992
2 39766  97.9182 183.3838 0001597  80.6018 279.5366 14.79476481153286
ASTRO-H (HITOMI)        
1 41337U 16012A   17084.78082370  .00000363  00000-0  22765-4 0  9991
2 41337  31.0060 287.3091 0012623 296.7114  63.2229 14.98263460 60401
